1 42766U 17036B   19101.15196357  .00001408  00000-0  66443-4 0  9991
2 42766  97.3587 159.1967 0017503 100.2032 260.1178 15.20963829 99815
1 42766U 17036B   19101.74407276  .00001472  00000-0  69275-4 0  9998
2 42766  97.3586 159.7752 0017512  98.3028 262.0195 15.20965827 99904
1 42766U 17036B   19102.40197060  .00001497  00000-0  70433-4 0  9994
2 42766  97.3585 160.4180 0017503  96.2196 264.1034 15.20967956100004
